{"type": "FeatureCollection", "features": [ {"type": "Feature", "properties": {"norad_id": 51444, "name": "CSG-2", "group": "resource", "lat": -49.38825149075391, "lon": -23.236025013780807, "alt_km": 630.278654116134, "timestamp": "2025-12-10T16:57:11.292541+00:00", "meta": {"OBJECT_NAME": "CSG-2", "OBJECT_ID": "2022-008A", "EPOCH": "2025-12-10T12:40:42.195360", "MEAN_MOTION": 14.82158967, "ECCENTRICITY": 0.0001482, "INCLINATION": 97.8805, "RA_OF_ASC_NODE": 165.8845, "ARG_OF_PERICENTER": 84.0585, "MEAN_ANOMALY": 276.0797, "EPHEMERIS_TYPE": 0, "CLASSIFICATION_TYPE": "U", "NORAD_CAT_ID": 51444, "ELEMENT_SET_NO": 999, "REV_AT_EPOCH": 20864, "BSTAR": 8.1897e-05, "MEAN_MOTION_DOT": 6e-06, "MEAN_MOTION_DDOT": 0}, "tle": {"line1": "1 51444U 22008A   25344.52826615  .00000600  00000+0  81897-4 0  9995", "line2": "2 51444  97.8805 165.8845 0001482  84.0585 276.0797 14.82158967208648"}}, "geometry": {"type": "Point", "coordinates": [-23.236025013780807, -49.38825149075391]}}, {"type": "Feature", "properties": {"norad_id": 52912, "name": "GAOFEN-12 03", "group": "resource", "lat": 14.547317246445042, "lon": 54.15315417999247, "alt_km": 631.8193876110663, "timestamp": "2025-12-10T16:57:11.292551+00:00", "meta": {"OBJECT_NAME": "GAOFEN-12 03", "OBJECT_ID": "2022-069A", "EPOCH": "2025-12-10T12:57:46.865664", "MEAN_MOTION": 14.79600468, "ECCENTRICITY": 0.0002266, "INCLINATION": 97.848, "RA_OF_ASC_NODE": 231.9396, "ARG_OF_PERICENTER": 65.203, "MEAN_ANOMALY": 294.9417, "EPHEMERIS_TYPE": 0, "CLASSIFICATION_TYPE": "U", "NORAD_CAT_ID": 52912, "ELEMENT_SET_NO": 999, "REV_AT_EPOCH": 18671, "BSTAR": 0.0002225, "MEAN_MOTION_DOT": 1.616e-05, "MEAN_MOTION_DDOT": 0}, "tle": {"line1": "1 52912U 22069A   25344.54012576  .00001616  00000+0  22250-3 0  9993", "line2": "2 52912  97.8480 231.9396 0002266  65.2030 294.9417 14.79600468186716"}}, "geometry": {"type": "Point", "coordinates": [54.15315417999247, 14.547317246445042]}}, {"type": "Feature", "properties": {"norad_id": 54754, "name": "SWOT", "group": "resource", "lat": 0.41127032034720545, "lon": -70.1749808750759, "alt_km": 895.9978476691413, "timestamp": "2025-12-10T16:57:11.292561+00:00", "meta": {"OBJECT_NAME": "SWOT", "OBJECT_ID": "2022-173A", "EPOCH": "2025-12-10T11:48:23.179680", "MEAN_MOTION": 14.00174192, "ECCENTRICITY": 3.29e-05, "INCLINATION": 77.6105, "RA_OF_ASC_NODE": 290.024, "ARG_OF_PERICENTER": 119.1645, "MEAN_ANOMALY": 240.9539, "EPHEMERIS_TYPE": 0, "CLASSIFICATION_TYPE": "U", "NORAD_CAT_ID": 54754, "ELEMENT_SET_NO": 999, "REV_AT_EPOCH": 15274, "BSTAR": 4.7495e-05, "MEAN_MOTION_DOT": 6.8e-07, "MEAN_MOTION_DDOT": 0}, "tle": {"line1": "1 54754U 22173A   25344.49193495  .00000068  00000+0  47495-4 0  9998", "line2": "2 54754  77.6105 290.0240 0000329 119.1645 240.9539 14.00174192152741"}}, "geometry": {"type": "Point", "coordinates": [-70.1749808750759, 0.41127032034720545]}}, {"type": "Feature", "properties": {"norad_id": 57654, "name": "GAOFEN-12 04", "group": "resource", "lat": -25.766801440800613, "lon": -95.65662544530632, "alt_km": 636.1280040216443, "timestamp": "2025-12-10T16:57:11.292570+00:00", "meta": {"OBJECT_NAME": "GAOFEN-12 04", "OBJECT_ID": "2023-123A", "EPOCH": "2025-12-10T12:12:06.064128", "MEAN_MOTION": 14.79689946, "ECCENTRICITY": 0.0001359, "INCLINATION": 97.9117, "RA_OF_ASC_NODE": 260.2995, "ARG_OF_PERICENTER": 73.611, "MEAN_ANOMALY": 286.5251, "EPHEMERIS_TYPE": 0, "CLASSIFICATION_TYPE": "U", "NORAD_CAT_ID": 57654, "ELEMENT_SET_NO": 999, "REV_AT_EPOCH": 12472, "BSTAR": 0.00031381, "MEAN_MOTION_DOT": 2.305e-05, "MEAN_MOTION_DDOT": 0}, "tle": {"line1": "1 57654U 23123A   25344.50840352  .00002305  00000+0  31381-3 0  9991", "line2": "2 57654  97.9117 260.2995 0001359  73.6110 286.5251 14.79689946124720"}}, "geometry": {"type": "Point", "coordinates": [-95.65662544530632, -25.766801440800613]}}, {"type": "Feature", "properties": {"norad_id": 59065, "name": "PARS 1", "group": "resource", "lat": -74.98817342891978, "lon": -15.136730811245739, "alt_km": 458.6154254913099, "timestamp": "2025-12-10T16:57:11.292580+00:00", "meta": {"OBJECT_NAME": "PARS 1", "OBJECT_ID": "2024-039Q", "EPOCH": "2025-12-10T12:36:40.873248", "MEAN_MOTION": 15.4089428, "ECCENTRICITY": 0.0012638, "INCLINATION": 97.4638, "RA_OF_ASC_NODE": 315.4116, "ARG_OF_PERICENTER": 78.9383, "MEAN_ANOMALY": 281.3284, "EPHEMERIS_TYPE": 0, "CLASSIFICATION_TYPE": "U", "NORAD_CAT_ID": 59065, "ELEMENT_SET_NO": 999, "REV_AT_EPOCH": 9954, "BSTAR": 0.00040856, "MEAN_MOTION_DOT": 0.00016763, "MEAN_MOTION_DDOT": 0}, "tle": {"line1": "1 59065U 24039Q   25344.52547307  .00016763  00000+0  40856-3 0  9992", "line2": "2 59065  97.4638 315.4116 0012638  78.9383 281.3284 15.40894280 99549"}}, "geometry": {"type": "Point", "coordinates": [-15.136730811245739, -74.98817342891978]}}, {"type": "Feature", "properties": {"norad_id": 59371, "name": "RESURS-P 4", "group": "resource", "lat": 49.3021263321495, "lon": 119.5952177341064, "alt_km": 465.01492757495726, "timestamp": "2025-12-10T16:57:11.292589+00:00", "meta": {"OBJECT_NAME": "RESURS-P 4", "OBJECT_ID": "2024-061A", "EPOCH": "2025-12-10T11:41:05.290656", "MEAN_MOTION": 15.32056747, "ECCENTRICITY": 0.0001692, "INCLINATION": 97.2543, "RA_OF_ASC_NODE": 290.863, "ARG_OF_PERICENTER": 53.2111, "MEAN_ANOMALY": 306.9286, "EPHEMERIS_TYPE": 0, "CLASSIFICATION_TYPE": "U", "NORAD_CAT_ID": 59371, "ELEMENT_SET_NO": 999, "REV_AT_EPOCH": 9486, "BSTAR": 0.00019201, "MEAN_MOTION_DOT": 5.867e-05, "MEAN_MOTION_DDOT": 0}, "tle": {"line1": "1 59371U 24061A   25344.48686679  .00005867  00000+0  19201-3 0  9991", "line2": "2 59371  97.2543 290.8630 0001692  53.2111 306.9286 15.32056747 94867"}}, "geometry": {"type": "Point", "coordinates": [119.5952177341064, 49.3021263321495]}}, {"type": "Feature", "properties": {"norad_id": 59625, "name": "LEGION 1", "group": "resource", "lat": 69.44072136884155, "lon": -100.01272935063814, "alt_km": 512.128156509315, "timestamp": "2025-12-10T16:57:11.292599+00:00", "meta": {"OBJECT_NAME": "LEGION 1", "OBJECT_ID": "2024-081A", "EPOCH": "2025-12-10T11:43:21.255744", "MEAN_MOTION": 15.16444018, "ECCENTRICITY": 0.0004134, "INCLINATION": 97.5211, "RA_OF_ASC_NODE": 59.1458, "ARG_OF_PERICENTER": 327.5012, "MEAN_ANOMALY": 32.5966, "EPHEMERIS_TYPE": 0, "CLASSIFICATION_TYPE": "U", "NORAD_CAT_ID": 59625, "ELEMENT_SET_NO": 999, "REV_AT_EPOCH": 8893, "BSTAR": 0.00041797, "MEAN_MOTION_DOT": 8.067e-05, "MEAN_MOTION_DDOT": 0}, "tle": {"line1": "1 59625U 24081A   25344.48844046  .00008067  00000+0  41797-3 0  9999", "line2": "2 59625  97.5211  59.1458 0004134 327.5012  32.5966 15.16444018 88931"}}, "geometry": {"type": "Point", "coordinates": [-100.01272935063814, 69.44072136884155]}}, {"type": "Feature", "properties": {"norad_id": 59626, "name": "LEGION 2", "group": "resource", "lat": -69.85234499466863, "lon": 80.55618264658314, "alt_km": 519.9780268291934, "timestamp": "2025-12-10T16:57:11.292609+00:00", "meta": {"OBJECT_NAME": "LEGION 2", "OBJECT_ID": "2024-081B", "EPOCH": "2025-12-10T10:55:55.416864", "MEAN_MOTION": 15.16454493, "ECCENTRICITY": 0.0005787, "INCLINATION": 97.5213, "RA_OF_ASC_NODE": 59.2003, "ARG_OF_PERICENTER": 303.4755, "MEAN_ANOMALY": 56.5924, "EPHEMERIS_TYPE": 0, "CLASSIFICATION_TYPE": "U", "NORAD_CAT_ID": 59626, "ELEMENT_SET_NO": 999, "REV_AT_EPOCH": 8893, "BSTAR": 0.00036836, "MEAN_MOTION_DOT": 7.104e-05, "MEAN_MOTION_DDOT": 0}, "tle": {"line1": "1 59626U 24081B   25344.45550251  .00007104  00000+0  36836-3 0  9998", "line2": "2 59626  97.5213  59.2003 0005787 303.4755  56.5924 15.16454493 88931"}}, "geometry": {"type": "Point", "coordinates": [80.55618264658314, -69.85234499466863]}}, {"type": "Feature", "properties": {"norad_id": 60182, "name": "ALOS-4 (DAICHI-4)", "group": "resource", "lat": -36.10040450380699, "lon": -106.24597852149542, "alt_km": 637.7480214625521, "timestamp": "2025-12-10T16:57:11.292619+00:00", "meta": {"OBJECT_NAME": "ALOS-4 (DAICHI-4)", "OBJECT_ID": "2024-123A", "EPOCH": "2025-12-10T12:43:54.253920", "MEAN_MOTION": 14.79476033, "ECCENTRICITY": 0.0001422, "INCLINATION": 97.9225, "RA_OF_ASC_NODE": 79.409, "ARG_OF_PERICENTER": 101.2731, "MEAN_ANOMALY": 258.864, "EPHEMERIS_TYPE": 0, "CLASSIFICATION_TYPE": "U", "NORAD_CAT_ID": 60182, "ELEMENT_SET_NO": 999, "REV_AT_EPOCH": 7798, "BSTAR": 0.00038723, "MEAN_MOTION_DOT": 2.842e-05, "MEAN_MOTION_DDOT": 0}, "tle": {"line1": "1 60182U 24123A   25344.53048905  .00002842  00000+0  38723-3 0  9992", "line2": "2 60182  97.9225  79.4090 0001422 101.2731 258.8640 14.79476033 77984"}}, "geometry": {"type": "Point", "coordinates": [-106.24597852149542, -36.10040450380699]}}, {"type": "Feature", "properties": {"norad_id": 60452, "name": "LEGION 3", "group": "resource", "lat": -24.58238565415358, "lon": -66.20902412125325, "alt_km": 528.614824706302, "timestamp": "2025-12-10T16:57:11.292629+00:00", "meta": {"OBJECT_NAME": "LEGION 3", "OBJECT_ID": "2024-146A", "EPOCH": "2025-12-10T10:47:06.031104", "MEAN_MOTION": 15.15723031, "ECCENTRICITY": 0.0014643, "INCLINATION": 45.0022, "RA_OF_ASC_NODE": 322.4111, "ARG_OF_PERICENTER": 186.3263, "MEAN_ANOMALY": 173.7433, "EPHEMERIS_TYPE": 0, "CLASSIFICATION_TYPE": "U", "NORAD_CAT_ID": 60452, "ELEMENT_SET_NO": 999, "REV_AT_EPOCH": 7338, "BSTAR": 0.00041865, "MEAN_MOTION_DOT": 7.877e-05, "MEAN_MOTION_DDOT": 0}, "tle": {"line1": "1 60452U 24146A   25344.44937536  .00007877  00000+0  41865-3 0  9998", "line2": "2 60452  45.0022 322.4111 0014643 186.3263 173.7433 15.15723031 73380"}}, "geometry": {"type": "Point", "coordinates": [-66.20902412125325, -24.58238565415358]}}]}